start=new Date('2022-12-19T00:00:00.000Z').valueOf();
sats=[{"OBJECT_NAME":"STARLINK-1594","GP_ID":"220865712","DECAY_DATE":null,"ARG_OF_PERICENTER":"55.1180","MEAN_MOTION_DDOT":"0.0000000000000","CLASSIFICATION_TYPE":"U","OBJECT_ID":"2020-057Z","TIME_SYSTEM":"UTC","RA_OF_ASC_NODE":"159.9268","CENTER_NAME":"EARTH","PERIAPSIS":"545.887","ELEMENT_SET_NO":"999","TLE_LINE2":"2 46140  53.0543 159.9268 0001924  55.1180 304.9990 15.06398192130500","COUNTRY_CODE":"US","OBJECT_TYPE":"PAYLOAD","EPOCH":"2022-12-18T18:53:42.268128","MEAN_ANOMALY":"304.9990","PERIOD":"95.592","SITE":"AFETR","MEAN_MOTION_DOT":"0.00001740","FILE":"3709623","SEMIMAJOR_AXIS":"6925.354","RCS_SIZE":"LARGE","EPHEMERIS_TYPE":"0","BSTAR":"0.00013569000000","REV_AT_EPOCH":"13050","LAUNCH_DATE":"2020-08-18","ECCENTRICITY":"0.00019240","NORAD_CAT_ID":"46140","MEAN_ELEMENT_THEORY":"SGP4","REF_FRAME":"TEME","TLE_LINE1":"1 46140U 20057Z   22352.78729477  .00001740  00000-0  13569-3 0  9993","INCLINATION":"53.0543","MEAN_MOTION":"15.06398192","APOAPSIS":"548.552"},{"GP_ID":"220857221","OBJECT_NAME":"STARLINK-1596","DECAY_DATE":null,"CLASSIFICATION_TYPE":"U","MEAN_MOTION_DDOT":"0.0000000000000","ARG_OF_PERICENTER":"51.8404","TIME_SYSTEM":"UTC","OBJECT_ID":"2020-057AA","RA_OF_ASC_NODE":"159.4314","COUNTRY_CODE":"US","TLE_LINE2":"2 46141  53.0542 159.4314 0001809  51.8404 308.2748 15.06385263129254","PERIAPSIS":"546.006","ELEMENT_SET_NO":"999","CENTER_NAME":"EARTH","MEAN_ANOMALY":"308.2748","OBJECT_TYPE":"PAYLOAD","EPOCH":"2022-12-18T21:32:57.519744","PERIOD":"95.593","FILE":"3709623","SEMIMAJOR_AXIS":"6925.394","RCS_SIZE":"LARGE","MEAN_MOTION_DOT":"0.00001770","SITE":"AFETR","EPHEMERIS_TYPE":"0","BSTAR":"0.00013773000000","REV_AT_EPOCH":"12925","MEAN_ELEMENT_THEORY":"SGP4","NORAD_CAT_ID":"46141","LAUNCH_DATE":"2020-08-18","ECCENTRICITY":"0.00018090","TLE_LINE1":"1 46141U 20057AA  22352.89788796  .00001770  00000-0  13773-3 0  9995","REF_FRAME":"TEME","APOAPSIS":"548.512","MEAN_MOTION":"15.06385263","INCLINATION":"53.0542"},{"DECAY_DATE":null,"GP_ID":"220866710","OBJECT_NAME":"STARLINK-1597","TIME_SYSTEM":"UTC","OBJECT_ID":"2020-057AB","CLASSIFICATION_TYPE":"U","MEAN_MOTION_DDOT":"0.0000000000000","ARG_OF_PERICENTER":"82.6270","COUNTRY_CODE":"US","TLE_LINE2":"2 46142  53.0539 199.6679 0001268  82.6270 277.4863 15.06392920128682","PERIAPSIS":"546.357","ELEMENT_SET_NO":"999","CENTER_NAME":"EARTH","RA_OF_ASC_NODE":"199.6679","PERIOD":"95.593","MEAN_ANOMALY":"277.4863","OBJECT_TYPE":"PAYLOAD","EPOCH":"2022-12-18T20:23:57.632640","EPHEMERIS_TYPE":"0","BSTAR":"0.00006928700000","RCS_SIZE":"LARGE","FILE":"3709623","SEMIMAJOR_AXIS":"6925.370","MEAN_MOTION_DOT":"0.00000751","SITE":"AFETR","MEAN_ELEMENT_THEORY":"SGP4","NORAD_CAT_ID":"46142","LAUNCH_DATE":"2020-08-18","ECCENTRICITY":"0.00012680","REV_AT_EPOCH":"12868","APOAPSIS":"548.113","MEAN_MOTION":"15.06392920","INCLINATION":"53.0539","TLE_LINE1":"1 46142U 20057AB  22352.84997260  .00000751  00000-0  69287-4 0  9999","REF_FRAME":"TEME"},{"REV_AT_EPOCH":"11721","NORAD_CAT_ID":"46144","LAUNCH_DATE":"2020-08-18","ECCENTRICITY":"0.00015270","MEAN_ELEMENT_THEORY":"SGP4","REF_FRAME":"TEME","TLE_LINE1":"1 46144U 20057AD  22352.81494860  .00000310  00000-0  39736-4 0  9993","INCLINATION":"53.0533","APOAPSIS":"548.313","MEAN_MOTION":"15.06386360","EPOCH":"2022-12-18T19:33:31.559040","OBJECT_TYPE":"PAYLOAD","MEAN_ANOMALY":"284.0544","PERIOD":"95.593","SITE":"AFETR","FILE":"3709623","RCS_SIZE":"LARGE","SEMIMAJOR_AXIS":"6925.390","MEAN_MOTION_DOT":"0.00000310","EPHEMERIS_TYPE":"0","BSTAR":"0.00003973600000","ARG_OF_PERICENTER":"76.0615","CLASSIFICATION_TYPE":"U","MEAN_MOTION_DDOT":"0.0000000000000","OBJECT_ID":"2020-057AD","TIME_SYSTEM":"UTC","RA_OF_ASC_NODE":"179.8063","ELEMENT_SET_NO":"999","PERIAPSIS":"546.198","CENTER_NAME":"EARTH","COUNTRY_CODE":"US","TLE_LINE2":"2 46144  53.0533 179.8063 0001527  76.0615 284.0544 15.06386360117211","GP_ID":"220865462","OBJECT_NAME":"STARLINK-1606","DECAY_DATE":null},{"MEAN_ELEMENT_THEORY":"SGP4","LAUNCH_DATE":"2020-08-18","ECCENTRICITY":"0.00014970","NORAD_CAT_ID":"46146","REV_AT_EPOCH":"12869","MEAN_MOTION":"15.06389447","APOAPSIS":"548.283","INCLINATION":"53.0525","TLE_LINE1":"1 46146U 20057AF  22352.86102059 -.00000481  00000-0 -13411-4 0  9999","REF_FRAME":"TEME","PERIOD":"95.593","MEAN_ANOMALY":"299.8224","EPOCH":"2022-12-18T20:39:52.178976","OBJECT_TYPE":"PAYLOAD","BSTAR":"-0.00001341100000","EPHEMERIS_TYPE":"0","MEAN_MOTION_DOT":"-0.00000481","FILE":"3709623","SEMIMAJOR_AXIS":"6925.381","RCS_SIZE":"LARGE","SITE":"AFETR","TIME_SYSTEM":"UTC","OBJECT_ID":"2020-057AF","CLASSIFICATION_TYPE":"U","MEAN_MOTION_DDOT":"0.0000000000000","ARG_OF_PERICENTER":"60.2914","TLE_LINE2":"2 46146  53.0525 199.6176 0001497  60.2914 299.8224 15.06389447128694","COUNTRY_CODE":"US","CENTER_NAME":"EARTH","PERIAPSIS":"546.209","ELEMENT_SET_NO":"999","RA_OF_ASC_NODE":"199.6176","DECAY_DATE":null,"GP_ID":"220866212","OBJECT_NAME":"STARLINK-1608"},{"RA_OF_ASC_NODE":"199.6944","PERIAPSIS":"546.057","ELEMENT_SET_NO":"999","CENTER_NAME":"EARTH","COUNTRY_CODE":"US","TLE_LINE2":"2 46147  53.0534 199.6944 0001717  82.9961 277.1223 15.06389505129948","ARG_OF_PERICENTER":"82.9961","MEAN_MOTION_DDOT":"0.0000000000000","CLASSIFICATION_TYPE":"U","OBJECT_ID":"2020-057AG","TIME_SYSTEM":"UTC","GP_ID":"220866463","OBJECT_NAME":"STARLINK-1611","DECAY_DATE":null,"REF_FRAME":"TEME","TLE_LINE1":"1 46147U 20057AG  22352.84258988  .00000590  00000-0  58496-4 0  9992","INCLINATION":"53.0534","APOAPSIS":"548.435","MEAN_MOTION":"15.06389505","REV_AT_EPOCH":"12994","NORAD_CAT_ID":"46147","LAUNCH_DATE":"2020-08-18","ECCENTRICITY":"0.00017170","MEAN_ELEMENT_THEORY":"SGP4","SITE":"AFETR","FILE":"3709623","RCS_SIZE":"LARGE","SEMIMAJOR_AXIS":"6925.381","MEAN_MOTION_DOT":"0.00000590","EPHEMERIS_TYPE":"0","BSTAR":"0.00005849600000","OBJECT_TYPE":"PAYLOAD","EPOCH":"2022-12-18T20:13:19.765632","MEAN_ANOMALY":"277.1223","PERIOD":"95.593"},{"FILE":"3709623","SEMIMAJOR_AXIS":"6925.378","RCS_SIZE":"LARGE","MEAN_MOTION_DOT":"-0.00000250","SITE":"AFETR","EPHEMERIS_TYPE":"0","BSTAR":"0.00000209890000","MEAN_ANOMALY":"292.7406","OBJECT_TYPE":"PAYLOAD","EPOCH":"2022-12-18T20:21:17.785728","PERIOD":"95.593","TLE_LINE1":"1 46148U 20057AH  22352.84812252 -.00000250  00000-0  20989-5 0  9994","REF_FRAME":"TEME","APOAPSIS":"548.373","MEAN_MOTION":"15.06390461","INCLINATION":"53.0552","REV_AT_EPOCH":"12896","MEAN_ELEMENT_THEORY":"SGP4","NORAD_CAT_ID":"46148","LAUNCH_DATE":"2020-08-18","ECCENTRICITY":"0.00016320","OBJECT_NAME":"STARLINK-1616","GP_ID":"220867209","DECAY_DATE":null,"RA_OF_ASC_NODE":"179.6793","COUNTRY_CODE":"US","TLE_LINE2":"2 46148  53.0552 179.6793 0001632  67.3755 292.7406 15.06390461128963","PERIAPSIS":"546.113","ELEMENT_SET_NO":"999","CENTER_NAME":"EARTH","MEAN_MOTION_DDOT":"0.0000000000000","CLASSIFICATION_TYPE":"U","ARG_OF_PERICENTER":"67.3755","TIME_SYSTEM":"UTC","OBJECT_ID":"2020-057AH"},{"MEAN_MOTION":"15.06391754","APOAPSIS":"548.531","INCLINATION":"53.0532","TLE_LINE1":"1 46149U 20057AJ  22352.86192354 -.00000253  00000-0  19278-5 0  9993","REF_FRAME":"TEME","MEAN_ELEMENT_THEORY":"SGP4","LAUNCH_DATE":"2020-08-18","ECCENTRICITY":"0.00018660","NORAD_CAT_ID":"46149","REV_AT_EPOCH":"13024","EPHEMERIS_TYPE":"0","BSTAR":"0.00000192780000","MEAN_MOTION_DOT":"-0.00000253","SEMIMAJOR_AXIS":"6925.374","FILE":"3709623","RCS_SIZE":"LARGE","SITE":"AFETR","PERIOD":"95.593","MEAN_ANOMALY":"304.7228","OBJECT_TYPE":"PAYLOAD","EPOCH":"2022-12-18T20:41:10.193856","TLE_LINE2":"2 46149  53.0532 179.6029 0001866  55.3937 304.7228 15.06391754130248","COUNTRY_CODE":"US","CENTER_NAME":"EARTH","ELEMENT_SET_NO":"999","PERIAPSIS":"545.947","RA_OF_ASC_NODE":"179.6029","TIME_SYSTEM":"UTC","OBJECT_ID":"2020-057AJ","MEAN_MOTION_DDOT":"0.0000000000000","CLASSIFICATION_TYPE":"U","ARG_OF_PERICENTER":"55.3937","DECAY_DATE":null,"OBJECT_NAME":"STARLINK-1620","GP_ID":"220865962"},{"DECAY_DATE":null,"GP_ID":"220865713","OBJECT_NAME":"STARLINK-1629","COUNTRY_CODE":"US","TLE_LINE2":"2 46150  53.0550 199.6360 0001494  71.8271 288.2881 15.06386800128694","PERIAPSIS":"546.219","ELEMENT_SET_NO":"999","CENTER_NAME":"EARTH","RA_OF_ASC_NODE":"199.6360","TIME_SYSTEM":"UTC","OBJECT_ID":"2020-057AK","MEAN_MOTION_DDOT":"0.0000000000000","CLASSIFICATION_TYPE":"U","ARG_OF_PERICENTER":"71.8271","BSTAR":"-0.00001841600000","EPHEMERIS_TYPE":"0","FILE":"3709623","RCS_SIZE":"LARGE","SEMIMAJOR_AXIS":"6925.389","MEAN_MOTION_DOT":"-0.00000556","SITE":"AFETR","PERIOD":"95.593","MEAN_ANOMALY":"288.2881","EPOCH":"2022-12-18T20:34:33.845088","OBJECT_TYPE":"PAYLOAD","APOAPSIS":"548.289","MEAN_MOTION":"15.06386800","INCLINATION":"53.0550","TLE_LINE1":"1 46150U 20057AK  22352.85733617 -.00000556  00000-0 -18416-4 0  9996","REF_FRAME":"TEME","MEAN_ELEMENT_THEORY":"SGP4","NORAD_CAT_ID":"46150","LAUNCH_DATE":"2020-08-18","ECCENTRICITY":"0.00014940","REV_AT_EPOCH":"12869"},{"ECCENTRICITY":"0.00013990","LAUNCH_DATE":"2020-08-18","NORAD_CAT_ID":"46151","MEAN_ELEMENT_THEORY":"SGP4","REV_AT_EPOCH":"12897","INCLINATION":"53.0537","MEAN_MOTION":"15.06393898","APOAPSIS":"548.201","REF_FRAME":"TEME","TLE_LINE1":"1 46151U 20057AL  22352.89972540  .00000755  00000-0  69601-4 0  9992","PERIOD":"95.593","EPOCH":"2022-12-18T21:35:36.274560","OBJECT_TYPE":"PAYLOAD","MEAN_ANOMALY":"286.2955","EPHEMERIS_TYPE":"0","BSTAR":"0.00006960100000","SITE":"AFETR","MEAN_MOTION_DOT":"0.00000755","FILE":"3709623","SEMIMAJOR_AXIS":"6925.367","RCS_SIZE":"LARGE","OBJECT_ID":"2020-057AL","TIME_SYSTEM":"UTC","ARG_OF_PERICENTER":"73.8188","CLASSIFICATION_TYPE":"U","MEAN_MOTION_DDOT":"0.0000000000000","CENTER_NAME":"EARTH","PERIAPSIS":"546.263","ELEMENT_SET_NO":"999","TLE_LINE2":"2 46151  53.0537 179.4256 0001399  73.8188 286.2955 15.06393898128979","COUNTRY_CODE":"US","RA_OF_ASC_NODE":"179.4256","DECAY_DATE":null,"OBJECT_NAME":"STARLINK-1631","GP_ID":"220866962"}];
